     2.10           G: GLONASS NAV DATA                     RINEX VERSION / TYPE
teqc  2015Jun23                         20210815 01:25:47UTCPGM / RUN BY / DATE
Linux 2.4.21-27.ELsmp|Opteron|gcc -static|Linux x86_64|=+   COMMENT
  2021     7    22    7.450580596924D-09                    CORR TO SYSTEM TIME
                                                            END OF HEADER
22 21  7 23 12 45  0.0-1.241248100996D-04-9.094947017729D-13 4.629000000000D+04
    1.516311376953D+04 1.135273933411D+00 2.793967723846D-09 0.000000000000D+00
    1.423647705078D+04 1.696648597717D+00-2.793967723846D-09-3.000000000000D+00
    1.481002685547D+04-2.780863761902D+00 0.000000000000D+00 0.000000000000D+00
10 21  7 23 13 15  0.0-7.320381700993D-05-0.000000000000D+00 4.680000000000D+04
   -1.638719726562D+03-6.169710159302D-01-4.656612873077D-09 0.000000000000D+00
    2.130445898438D+04 1.804219245911D+00-9.313225746155D-10-7.000000000000D+00
   -1.388211035156D+04 2.847866058350D+00-0.000000000000D+00 0.000000000000D+00
 9 21  7 23 13 15  0.0 4.376284778118D-06 2.728484105319D-12 4.680000000000D+04
   -1.063289697266D+04 2.111454010010D-01-3.725290298462D-09 0.000000000000D+00
    2.314764062500D+04-2.029333114624D-01-9.313225746155D-10-2.000000000000D+00
    1.985916503906D+03 3.526741027832D+00-2.793967723846D-09 0.000000000000D+00
16 21  7 23 13 15  0.0-1.835729926825D-05-9.094947017729D-13 4.680000000000D+04
   -1.398382617188D+04 9.332847595215D-01-9.313225746155D-10 0.000000000000D+00
    1.287727783203D+04-2.130912780762D+00-0.000000000000D+00-1.000000000000D+00
    1.692511669922D+04 2.401628494263D+00-3.725290298462D-09 0.000000000000D+00
20 21  7 23 13 15  0.0-5.294475704432D-05-0.000000000000D+00 4.680000000000D+04
   -2.353308593750D+03-1.595699310303D+00-4.656612873077D-09 0.000000000000D+00
    1.344941455078D+04-2.490089416504D+00 0.000000000000D+00 2.000000000000D+00
   -2.155473779297D+04-1.376082420349D+00 0.000000000000D+00 0.000000000000D+00
21 21  7 23 13 15  0.0-2.260198816657D-04-2.728484105319D-12 4.680000000000D+04
    1.159972460938D+04-4.186220169067D-01-9.313225746155D-10 0.000000000000D+00
    2.146809326172D+04-9.483814239502D-01-2.793967723846D-09 4.000000000000D+00
   -7.386165039062D+03-3.419963836670D+00 9.313225746155D-10 0.000000000000D+00
22 21  7 23 13 15  0.0-1.241266727448D-04-9.094947017729D-13 4.680000000000D+04
    1.706790820312D+04 9.356327056885D-01 1.862645149231D-09 0.000000000000D+00
    1.657608300781D+04 8.987283706665D-01-3.725290298462D-09-3.000000000000D+00
    9.298280273438D+03-3.303561210632D+00 9.313225746155D-10 0.000000000000D+00
 6 21  7 23 13 15  0.0 2.019852399826D-04 0.000000000000D+00 4.782000000000D+04
   -1.194677832031D+04-2.642085075378D+00-0.000000000000D+00 0.000000000000D+00
    1.118785058594D+04 4.478216171265D-01-0.000000000000D+00-4.000000000000D+00
    1.954799511719D+04-1.872048377991D+00-3.725290298462D-09 0.000000000000D+00
10 21  7 23 13 45  0.0-7.320567965508D-05-0.000000000000D+00 4.860000000000D+04
   -2.312764648438D+03-1.575870513916D-01-4.656612873077D-09 0.000000000000D+00
    2.398032373047D+04 1.133579254150D+00-0.000000000000D+00-7.000000000000D+00
   -8.283892578125D+03 3.331894874573D+00-9.313225746155D-10 0.000000000000D+00
 9 21  7 23 13 45  0.0 4.380941390991D-06 2.728484105319D-12 4.860000000000D+04
   -1.005193847656D+04 3.940391540527D-01-2.793967723846D-09 0.000000000000D+00
    2.202407861328D+04-1.047163009644D+00-0.000000000000D+00-2.000000000000D+00
    8.176034179688D+03 3.306740760803D+00-3.725290298462D-09 0.000000000000D+00
 6 21  7 23 13 45  0.0 2.019861713052D-04 0.000000000000D+00 4.860000000000D+04
   -1.616728710938D+04-2.013835906982D+00-1.862645149231D-09 0.000000000000D+00
    1.222377050781D+04 6.697731018066D-01 0.000000000000D+00-4.000000000000D+00
    1.546510058594D+04-2.635026931763D+00-3.725290298462D-09 0.000000000000D+00
16 21  7 23 13 45  0.0-1.836009323597D-05-9.094947017729D-13 4.860000000000D+04
   -1.244734667969D+04 7.391977310181D-01 0.000000000000D+00 0.000000000000D+00
    8.481208007812D+03-2.720069885254D+00-0.000000000000D+00-1.000000000000D+00
    2.053365332031D+04 1.581897735596D+00-2.793967723846D-09 0.000000000000D+00
20 21  7 23 13 45  0.0-5.294568836689D-05-0.000000000000D+00 4.860000000000D+04
   -5.708006347656D+03-2.107969284058D+00-4.656612873077D-09 0.000000000000D+00
    9.025510253906D+03-2.378076553345D+00 1.862645149231D-09 2.000000000000D+00
   -2.316711474609D+04-4.037284851074D-01 0.000000000000D+00 0.000000000000D+00
21 21  7 23 13 45  0.0-2.260254696012D-04-2.728484105319D-12 4.860000000000D+04
    1.023708300781D+04-1.109249114990D+00-2.793967723846D-09 0.000000000000D+00
    1.928091503906D+04-1.439109802246D+00-9.313225746155D-10 4.000000000000D+00
   -1.317646826172D+04-2.971907615662D+00 9.313225746155D-10 0.000000000000D+00
22 21  7 23 13 45  0.0-1.241294667125D-04-9.094947017729D-13 4.860000000000D+04
    1.837338818359D+04 4.741973876953D-01 0.000000000000D+00 0.000000000000D+00
    1.749242333984D+04 1.346836090088D-01-3.725290298462D-09-3.000000000000D+00
    3.070496582031D+03-3.571431159973D+00 9.313225746155D-10 0.000000000000D+00
10 21  7 23 14 15  0.0-7.320661097765D-05-0.000000000000D+00 5.040000000000D+04
   -2.320371582031D+03 1.124677658081D-01-4.656612873077D-09 0.000000000000D+00
    2.528525781250D+04 2.970600128174D-01 0.000000000000D+00-7.000000000000D+00
   -2.042750488281D+03 3.557505607605D+00-1.862645149231D-09 0.000000000000D+00
 9 21  7 23 14 15  0.0 4.385598003864D-06 2.728484105319D-12 5.040000000000D+04
   -9.359566894531D+03 3.363933563232D-01-1.862645149231D-09 0.000000000000D+00
    1.940598095703D+04-1.844686508179D+00-0.000000000000D+00-2.000000000000D+00
    1.373719189453D+04 2.832405090332D+00-3.725290298462D-09 0.000000000000D+00
 6 21  7 23 14 15  0.0 2.019871026278D-04 0.000000000000D+00 5.040000000000D+04
   -1.910548535156D+04-1.234470367432D+00-2.793967723846D-09 0.000000000000D+00
    1.346225585938D+04 6.651296615601D-01 1.862645149231D-09-4.000000000000D+00
    1.018458544922D+04-3.194058418274D+00-3.725290298462D-09 0.000000000000D+00
21 21  7 23 14 15  0.0-2.260301262140D-04-2.728484105319D-12 5.040000000000D+04
    7.590732421875D+03-1.825737953186D+00-3.725290298462D-09 0.000000000000D+00
    1.645240673828D+04-1.656230926514D+00 0.000000000000D+00 4.000000000000D+00
   -1.794683496094D+04-2.294121742249D+00 9.313225746155D-10 0.000000000000D+00
22 21  7 23 14 15  0.0-1.241322606802D-04-9.094947017729D-13 5.040000000000D+04
    1.864771972656D+04-1.981277465820D-01-9.313225746155D-10 0.000000000000D+00
    1.714679248047D+04-4.872016906738D-01-2.793967723846D-09-3.000000000000D+00
   -3.393542968750D+03-3.564454078674D+00 9.313225746155D-10 0.000000000000D+00
 7 21  7 23 14 15  0.0-4.192907363176D-05 0.000000000000D+00 5.091000000000D+04
   -4.243462890625D+03-2.733036994934D+00 0.000000000000D+00 0.000000000000D+00
    1.276743408203D+04 1.144244194031D+00-9.313225746155D-10 5.000000000000D+00
    2.169993310547D+04-1.213726997375D+00-2.793967723846D-09 0.000000000000D+00
10 21  7 23 14 45  0.0-7.320847362280D-05-0.000000000000D+00 5.220000000000D+04
   -2.050043945312D+03 1.470832824707D-01-3.725290298462D-09 0.000000000000D+00
    2.501443554688D+04-5.979566574097D-01 0.000000000000D+00-7.000000000000D+00
    4.356975585938D+03 3.506930351257D+00-2.793967723846D-09 0.000000000000D+00
 9 21  7 23 14 45  0.0 4.390254616737D-06 2.728484105319D-12 5.220000000000D+04
   -8.967953125000D+03 6.832504272461D-02-9.313225746155D-10 0.000000000000D+00
    1.547602587891D+04-2.488262176514D+00-0.000000000000D+00-2.000000000000D+00
    1.824154541016D+04 2.140048027039D+00-3.725290298462D-09 0.000000000000D+00
 6 21  7 23 14 45  0.0 2.019889652729D-04 0.000000000000D+00 5.220000000000D+04
   -2.058697509766D+04-4.145393371582D-01-2.793967723846D-09 0.000000000000D+00
    1.446639160156D+04 4.089384078979D-01 3.725290298462D-09-4.000000000000D+00
    4.115293457031D+03-3.505732536316D+00-3.725290298462D-09 0.000000000000D+00
 7 21  7 23 14 45  0.0-4.192814230919D-05 0.000000000000D+00 5.220000000000D+04
   -8.698349609375D+03-2.183720588684D+00-0.000000000000D+00 0.000000000000D+00
    1.502623535156D+04 1.328639984131D+00-0.000000000000D+00 5.000000000000D+00
    1.870666552734D+04-2.090767860413D+00-3.725290298462D-09 0.000000000000D+00
21 21  7 23 14 45  0.0-2.260357141495D-04-2.728484105319D-12 5.220000000000D+04
    3.718855957031D+03-2.451869010925D+00-4.656612873077D-09 0.000000000000D+00
    1.348633496094D+04-1.595172882080D+00 1.862645149231D-09 4.000000000000D+00
   -2.132883935547D+04-1.439348220825D+00 0.000000000000D+00 0.000000000000D+00
22 21  7 23 14 45  0.0-1.241341233253D-04-9.094947017729D-13 5.220000000000D+04
    1.758617382812D+04-9.929113388062D-01-2.793967723846D-09 0.000000000000D+00
    1.587329687500D+04-8.857803344727D-01-9.313225746155D-10-3.000000000000D+00
   -9.596733886719D+03-3.283498764038D+00 9.313225746155D-10 0.000000000000D+00
10 21  7 23 15 15  0.0-7.321033626795D-05-0.000000000000D+00 5.400000000000D+04
   -1.934292480469D+03-5.583095550537D-02-2.793967723846D-09 0.000000000000D+00
    2.316812792969D+04-1.434088706970D+00 0.000000000000D+00-7.000000000000D+00
    1.041843066406D+04 3.184129714966D+00-3.725290298462D-09 0.000000000000D+00
 9 21  7 23 15 15  0.0 4.394911229610D-06 2.728484105319D-12 5.400000000000D+04
   -9.199482910156D+03-3.419876098633D-01 0.000000000000D+00 0.000000000000D+00
    1.059244091797D+04-2.892708778381D+00-0.000000000000D+00-2.000000000000D+00
    2.134202246094D+04 1.282545089722D+00-2.793967723846D-09 0.000000000000D+00
 6 21  7 23 15 15  0.0 2.019898965955D-04 0.000000000000D+00 5.400000000000D+04
   -2.064203857422D+04 3.322238922119D-01-2.793967723846D-09 0.000000000000D+00
    1.479462744141D+04-7.883167266846D-02 4.656612873077D-09-4.000000000000D+00
   -2.272719238281D+03-3.545898437500D+00-3.725290298462D-09 0.000000000000D+00
